{
 "type": "FeatureCollection",
 "features": [
  {
   "type": "Feature",
   "properties": {
    "district": "Northvale",
    "region": "South"
   },
   "geometry": {
    "type": "Polygon",
    "coordinates": [
     [
      [
       73.98590662118666,
       11.97206793391396
      ],
      [
       74.5120747578432,
       11.965794902933403
      ],
      [
       74.50287056034453,
       12.489255113353007
      ],
      [
       73.96463991398198,
       12.500594858655154
      ],
      [
       73.98590662118666,
       11.97206793391396
      ]
     ]
    ]
   }
  },
  {
   "type": "Feature",
   "properties": {
    "district": "Eastmarch",
    "region": "South"
   },
   "geometry": {
    "type": "Polygon",
    "coordinates": [
     [
      [
       74.46299965267536,
       11.994691654692991
      ],
      [
       74.96558843388597,
       11.967257041067509
      ],
      [
       74.9939615351314,
       12.526148169973762
      ],
      [
       74.46990415689197,
       12.477859117168562
      ],
      [
       74.46299965267536,
       11.994691654692991
      ]
     ]
    ]
   }
  },
  {
   "type": "Feature",
   "properties": {
    "district": "Westford",
    "region": "South"
   },
   "geometry": {
    "type": "Polygon",
    "coordinates": [
     [
      [
       75.01019465779245,
       12.03581671539656
      ],
      [
       75.5061682358894,
       11.991734437972063
      ],
      [
       75.53810040844743,
       12.46372661444942
      ],
      [
       75.0286774767239,
       12.483168742906534
      ],
      [
       75.01019465779245,
       12.03581671539656
      ]
     ]
    ]
   }
  },
  {
   "type": "Feature",
   "properties": {
    "district": "Southbury",
    "region": "South"
   },
   "geometry": {
    "type": "Polygon",
    "coordinates": [
     [
      [
       75.4715404066686,
       11.969423379046269
      ],
      [
       75.98467854592815,
       12.025290108729603
      ],
      [
       75.97445811039391,
       12.506528013092998
      ],
      [
       75.5111130775141,
       12.489791803418058
      ],
      [
       75.4715404066686,
       11.969423379046269
      ]
     ]
    ]
   }
  },
  {
   "type": "Feature",
   "properties": {
    "district": "Highmoor",
    "region": "Central"
   },
   "geometry": {
    "type": "Polygon",
    "coordinates": [
     [
      [
       74.00381955725676,
       12.465023117997866
      ],
      [
       74.4647680935973,
       12.476476697025547
      ],
      [
       74.51443199785454,
       12.994207384453553
      ],
      [
       73.98513177363014,
       13.00684494908061
      ],
      [
       74.00381955725676,
       12.465023117997866
      ]
     ]
    ]
   }
  },
  {
   "type": "Feature",
   "properties": {
    "district": "Lakeside",
    "region": "Central"
   },
   "geometry": {
    "type": "Polygon",
    "coordinates": [
     [
      [
       74.49625475010966,
       12.483981359749095
      ],
      [
       75.0235503585218,
       12.515919554698366
      ],
      [
       74.97952772085777,
       13.005953896820694
      ],
      [
       74.50201572030491,
       13.030010999645874
      ],
      [
       74.49625475010966,
       12.483981359749095
      ]
     ]
    ]
   }
  },
  {
   "type": "Feature",
   "properties": {
    "district": "Riverton",
    "region": "Central"
   },
   "geometry": {
    "type": "Polygon",
    "coordinates": [
     [
      [
       75.01835562315513,
       12.483035021191215
      ],
      [
       75.5384139877994,
       12.469445262260397
      ],
      [
       75.49344982574281,
       13.02057127436522
      ],
      [
       74.97215876277284,
       12.999117048038064
      ],
      [
       75.01835562315513,
       12.483035021191215
      ]
     ]
    ]
   }
  },
  {
   "type": "Feature",
   "properties": {
    "district": "Stonebridge",
    "region": "Central"
   },
   "geometry": {
    "type": "Polygon",
    "coordinates": [
     [
      [
       75.4631365805638,
       12.513457268522751
      ],
      [
       76.02116566929702,
       12.50584207522219
      ],
      [
       76.03003822494647,
       12.985099801027848
      ],
      [
       75.5156236293019,
       13.007549590168402
      ],
      [
       75.4631365805638,
       12.513457268522751
      ]
     ]
    ]
   }
  },
  {
   "type": "Feature",
   "properties": {
    "district": "Fairhaven",
    "region": "North"
   },
   "geometry": {
    "type": "Polygon",
    "coordinates": [
     [
      [
       74.0063916163426,
       12.996496426504113
      ],
      [
       74.527197422441,
       13.035574487608635
      ],
      [
       74.49792786699358,
       13.513132176437974
      ],
      [
       73.96485355420778,
       13.516119361704353
      ],
      [
       74.0063916163426,
       12.996496426504113
      ]
     ]
    ]
   }
  },
  {
   "type": "Feature",
   "properties": {
    "district": "Oakdale",
    "region": "North"
   },
   "geometry": {
    "type": "Polygon",
    "coordinates": [
     [
      [
       74.51177030836222,
       13.03944767515733
      ],
      [
       75.02575398292878,
       12.982767642567532
      ],
      [
       74.99086331539574,
       13.513492217270736
      ],
      [
       74.46180503424445,
       13.496935622903981
      ],
      [
       74.51177030836222,
       13.03944767515733
      ]
     ]
    ]
   }
  },
  {
   "type": "Feature",
   "properties": {
    "district": "Millbrook",
    "region": "North"
   },
   "geometry": {
    "type": "Polygon",
    "coordinates": [
     [
      [
       74.97344387031252,
       12.969367663558538
      ],
      [
       75.4647163535465,
       13.021458639077801
      ],
      [
       75.4703472177615,
       13.479809186695753
      ],
      [
       74.99127597625066,
       13.529713757930104
      ],
      [
       74.97344387031252,
       12.969367663558538
      ]
     ]
    ]
   }
  },
  {
   "type": "Feature",
   "properties": {
    "district": "Greyfell",
    "region": "North"
   },
   "geometry": {
    "type": "Polygon",
    "coordinates": [
     [
      [
       75.46644650409601,
       12.995934992075947
      ],
      [
       76.00395519273152,
       13.030670706115322
      ],
      [
       76.02554238702686,
       13.529118757575882
      ],
      [
       75.48227368516112,
       13.493223721376935
      ],
      [
       75.46644650409601,
       12.995934992075947
      ]
     ]
    ]
   }
  }
 ]
}